[
  {
    "code": "AF",
    "name": "AfganistÃ¡n",
    "dial_code": "+93",
    "flag": "ğŸ‡¦ğŸ‡«"
  },
  {
    "code": "AL",
    "name": "Albania",
    "dial_code": "+355",
    "flag": "ğŸ‡¦ğŸ‡±"
  },
  {
    "code": "DE",
    "name": "Alemania",
    "dial_code": "+49",
    "flag": "ğŸ‡©ğŸ‡ª"
  },
  {
    "code": "AD",
    "name": "Andorra",
    "dial_code": "+376",
    "flag": "ğŸ‡¦ğŸ‡©"
  },
  {
    "code": "AO",
    "name": "Angola",
    "dial_code": "+244",
    "flag": "ğŸ‡¦ğŸ‡´"
  },
  {
    "code": "AG",
    "name": "Antigua y Barbuda",
    "dial_code": "+1",
    "flag": "ğŸ‡¦ğŸ‡¬"
  },
  {
    "code": "SA",
    "name": "Arabia Saudita",
    "dial_code": "+966",
    "flag": "ğŸ‡¸ğŸ‡¦"
  },
  {
    "code": "DZ",
    "name": "Argelia",
    "dial_code": "+213",
    "flag": "ğŸ‡©ğŸ‡¿"
  },
  {
    "code": "AR",
    "name": "Argentina",
    "dial_code": "+54",
    "flag": "ğŸ‡¦ğŸ‡·"
  },
  {
    "code": "AM",
    "name": "Armenia",
    "dial_code": "+374",
    "flag": "ğŸ‡¦ğŸ‡²"
  },
  {
    "code": "AU",
    "name": "Australia",
    "dial_code": "+61",
    "flag": "ğŸ‡¦ğŸ‡º"
  },
  {
    "code": "AT",
    "name": "Austria",
    "dial_code": "+43",
    "flag": "ğŸ‡¦ğŸ‡¹"
  },
  {
    "code": "AZ",
    "name": "AzerbaiyÃ¡n",
    "dial_code": "+994",
    "flag": "ğŸ‡¦ğŸ‡¿"
  },
  {
    "code": "BS",
    "name": "Bahamas",
    "dial_code": "+1",
    "flag": "ğŸ‡§ğŸ‡¸"
  },
  {
    "code": "BD",
    "name": "BangladÃ©s",
    "dial_code": "+880",
    "flag": "ğŸ‡§ğŸ‡©"
  },
  {
    "code": "BB",
    "name": "Barbados",
    "dial_code": "+1",
    "flag": "ğŸ‡§ğŸ‡§"
  },
  {
    "code": "BH",
    "name": "BarÃ©in",
    "dial_code": "+973",
    "flag": "ğŸ‡§ğŸ‡­"
  },
  {
    "code": "BE",
    "name": "BÃ©lgica",
    "dial_code": "+32",
    "flag": "ğŸ‡§ğŸ‡ª"
  },
  {
    "code": "BZ",
    "name": "Belice",
    "dial_code": "+501",
    "flag": "ğŸ‡§ğŸ‡¿"
  },
  {
    "code": "BJ",
    "name": "BenÃ­n",
    "dial_code": "+229",
    "flag": "ğŸ‡§ğŸ‡¯"
  },
  {
    "code": "BY",
    "name": "Bielorrusia",
    "dial_code": "+375",
    "flag": "ğŸ‡§ğŸ‡¾"
  },
  {
    "code": "MM",
    "name": "Birmania",
    "dial_code": "+95",
    "flag": "ğŸ‡²ğŸ‡²"
  },
  {
    "code": "BO",
    "name": "Bolivia",
    "dial_code": "+591",
    "flag": "ğŸ‡§ğŸ‡´"
  },
  {
    "code": "BA",
    "name": "Bosnia y Herzegovina",
    "dial_code": "+387",
    "flag": "ğŸ‡§ğŸ‡¦"
  },
  {
    "code": "BW",
    "name": "Botsuana",
    "dial_code": "+267",
    "flag": "ğŸ‡§ğŸ‡¼"
  },
  {
    "code": "BR",
    "name": "Brasil",
    "dial_code": "+55",
    "flag": "ğŸ‡§ğŸ‡·"
  },
  {
    "code": "BN",
    "name": "BrunÃ©i",
    "dial_code": "+673",
    "flag": "ğŸ‡§ğŸ‡³"
  },
  {
    "code": "BG",
    "name": "Bulgaria",
    "dial_code": "+359",
    "flag": "ğŸ‡§ğŸ‡¬"
  },
  {
    "code": "BF",
    "name": "Burkina Faso",
    "dial_code": "+226",
    "flag": "ğŸ‡§ğŸ‡«"
  },
  {
    "code": "BI",
    "name": "Burundi",
    "dial_code": "+257",
    "flag": "ğŸ‡§ğŸ‡®"
  },
  {
    "code": "BT",
    "name": "ButÃ¡n",
    "dial_code": "+975",
    "flag": "ğŸ‡§ğŸ‡¹"
  },
  {
    "code": "CV",
    "name": "Cabo Verde",
    "dial_code": "+238",
    "flag": "ğŸ‡¨ğŸ‡»"
  },
  {
    "code": "KH",
    "name": "Camboya",
    "dial_code": "+855",
    "flag": "ğŸ‡°ğŸ‡­"
  },
  {
    "code": "CM",
    "name": "CamerÃºn",
    "dial_code": "+237",
    "flag": "ğŸ‡¨ğŸ‡²"
  },
  {
    "code": "CA",
    "name": "CanadÃ¡",
    "dial_code": "+1",
    "flag": "ğŸ‡¨ğŸ‡¦"
  },
  {
    "code": "QA",
    "name": "Catar",
    "dial_code": "+974",
    "flag": "ğŸ‡¶ğŸ‡¦"
  },
  {
    "code": "TD",
    "name": "Chad",
    "dial_code": "+235",
    "flag": "ğŸ‡¹ğŸ‡©"
  },
  {
    "code": "CZ",
    "name": "Chequia",
    "dial_code": "+420",
    "flag": "ğŸ‡¨ğŸ‡¿"
  },
  {
    "code": "CL",
    "name": "Chile",
    "dial_code": "+56",
    "flag": "ğŸ‡¨ğŸ‡±"
  },
  {
    "code": "CN",
    "name": "China",
    "dial_code": "+86",
    "flag": "ğŸ‡¨ğŸ‡³"
  },
  {
    "code": "CY",
    "name": "Chipre",
    "dial_code": "+357",
    "flag": "ğŸ‡¨ğŸ‡¾"
  },
  {
    "code": "CO",
    "name": "Colombia",
    "dial_code": "+57",
    "flag": "ğŸ‡¨ğŸ‡´"
  },
  {
    "code": "KM",
    "name": "Comoras",
    "dial_code": "+269",
    "flag": "ğŸ‡°ğŸ‡²"
  },
  {
    "code": "CG",
    "name": "Congo",
    "dial_code": "+242",
    "flag": "ğŸ‡¨ğŸ‡¬"
  },
  {
    "code": "KP",
    "name": "Corea del Norte",
    "dial_code": "+850",
    "flag": "ğŸ‡°ğŸ‡µ"
  },
  {
    "code": "KR",
    "name": "Corea del Sur",
    "dial_code": "+82",
    "flag": "ğŸ‡°ğŸ‡·"
  },
  {
    "code": "CI",
    "name": "Costa de Marfil",
    "dial_code": "+225",
    "flag": "ğŸ‡¨ğŸ‡®"
  },
  {
    "code": "CR",
    "name": "Costa Rica",
    "dial_code": "+506",
    "flag": "ğŸ‡¨ğŸ‡·"
  },
  {
    "code": "HR",
    "name": "Croacia",
    "dial_code": "+385",
    "flag": "ğŸ‡­ğŸ‡·"
  },
  {
    "code": "CU",
    "name": "Cuba",
    "dial_code": "+53",
    "flag": "ğŸ‡¨ğŸ‡º"
  },
  {
    "code": "DK",
    "name": "Dinamarca",
    "dial_code": "+45",
    "flag": "ğŸ‡©ğŸ‡°"
  },
  {
    "code": "DM",
    "name": "Dominica",
    "dial_code": "+1",
    "flag": "ğŸ‡©ğŸ‡²"
  },
  {
    "code": "EC",
    "name": "Ecuador",
    "dial_code": "+593",
    "flag": "ğŸ‡ªğŸ‡¨"
  },
  {
    "code": "EG",
    "name": "Egipto",
    "dial_code": "+20",
    "flag": "ğŸ‡ªğŸ‡¬"
  },
  {
    "code": "SV",
    "name": "El Salvador",
    "dial_code": "+503",
    "flag": "ğŸ‡¸ğŸ‡»"
  },
  {
    "code": "AE",
    "name": "Emiratos Ãrabes Unidos",
    "dial_code": "+971",
    "flag": "ğŸ‡¦ğŸ‡ª"
  },
  {
    "code": "ER",
    "name": "Eritrea",
    "dial_code": "+291",
    "flag": "ğŸ‡ªğŸ‡·"
  },
  {
    "code": "SK",
    "name": "Eslovaquia",
    "dial_code": "+421",
    "flag": "ğŸ‡¸ğŸ‡°"
  },
  {
    "code": "SI",
    "name": "Eslovenia",
    "dial_code": "+386",
    "flag": "ğŸ‡¸ğŸ‡®"
  },
  {
    "code": "ES",
    "name": "EspaÃ±a",
    "dial_code": "+34",
    "flag": "ğŸ‡ªğŸ‡¸"
  },
  {
    "code": "US",
    "name": "Estados Unidos",
    "dial_code": "+1",
    "flag": "ğŸ‡ºğŸ‡¸"
  },
  {
    "code": "EE",
    "name": "â‰ˆ",
    "dial_code": "+372",
    "flag": "ğŸ‡ªğŸ‡ª"
  },
  {
    "code": "SZ",
    "name": "Esuatini",
    "dial_code": "+268",
    "flag": "ğŸ‡¸ğŸ‡¿"
  },
  {
    "code": "ET",
    "name": "EtiopÃ­a",
    "dial_code": "+251",
    "flag": "ğŸ‡ªğŸ‡¹"
  },
  {
    "code": "PH",
    "name": "Filipinas",
    "dial_code": "+63",
    "flag": "ğŸ‡µğŸ‡­"
  },
  {
    "code": "FI",
    "name": "Finlandia",
    "dial_code": "+358",
    "flag": "ğŸ‡«ğŸ‡®"
  },
  {
    "code": "FJ",
    "name": "Fiyi",
    "dial_code": "+679",
    "flag": "ğŸ‡«ğŸ‡¯"
  },
  {
    "code": "FR",
    "name": "Francia",
    "dial_code": "+33",
    "flag": "ğŸ‡«ğŸ‡·"
  },
  {
    "code": "GA",
    "name": "GabÃ³n",
    "dial_code": "+241",
    "flag": "ğŸ‡¬ğŸ‡¦"
  },
  {
    "code": "GM",
    "name": "Gambia",
    "dial_code": "+220",
    "flag": "ğŸ‡¬ğŸ‡²"
  },
  {
    "code": "GE",
    "name": "Georgia",
    "dial_code": "+995",
    "flag": "ğŸ‡¬ğŸ‡ª"
  },
  {
    "code": "GH",
    "name": "Ghana",
    "dial_code": "+233",
    "flag": "ğŸ‡¬ğŸ‡­"
  },
  {
    "code": "GD",
    "name": "Granada",
    "dial_code": "+1",
    "flag": "ğŸ‡¬ğŸ‡©"
  },
  {
    "code": "GR",
    "name": "Grecia",
    "dial_code": "+30",
    "flag": "ğŸ‡¬ğŸ‡·"
  },
  {
    "code": "GT",
    "name": "Guatemala",
    "dial_code": "+502",
    "flag": "ğŸ‡¬ğŸ‡¹"
  },
  {
    "code": "GN",
    "name": "Guinea",
    "dial_code": "+224",
    "flag": "ğŸ‡¬ğŸ‡³"
  },
  {
    "code": "GQ",
    "name": "Guinea Ecuatorial",
    "dial_code": "+240",
    "flag": "ğŸ‡¬ğŸ‡¶"
  },
  {
    "code": "GW",
    "name": "Guinea-BisÃ¡u",
    "dial_code": "+245",
    "flag": "ğŸ‡¬ğŸ‡¼"
  },
  {
    "code": "GY",
    "name": "Guyana",
    "dial_code": "+592",
    "flag": "ğŸ‡¬ğŸ‡¾"
  },
  {
    "code": "HT",
    "name": "HaitÃ­",
    "dial_code": "+509",
    "flag": "ğŸ‡­ğŸ‡¹"
  },
  {
    "code": "HN",
    "name": "Honduras",
    "dial_code": "+504",
    "flag": "ğŸ‡­ğŸ‡³"
  },
  {
    "code": "HU",
    "name": "HungrÃ­a",
    "dial_code": "+36",
    "flag": "ğŸ‡­ğŸ‡º"
  },
  {
    "code": "IN",
    "name": "India",
    "dial_code": "+91",
    "flag": "ğŸ‡®ğŸ‡³"
  },
  {
    "code": "ID",
    "name": "Indonesia",
    "dial_code": "+62",
    "flag": "ğŸ‡®ğŸ‡©"
  },
  {
    "code": "IQ",
    "name": "Irak",
    "dial_code": "+964",
    "flag": "ğŸ‡®ğŸ‡¶"
  },
  {
    "code": "IR",
    "name": "IrÃ¡n",
    "dial_code": "+98",
    "flag": "ğŸ‡®ğŸ‡·"
  },
  {
    "code": "IE",
    "name": "Irlanda",
    "dial_code": "+353",
    "flag": "ğŸ‡®ğŸ‡ª"
  },
  {
    "code": "IS",
    "name": "Islandia",
    "dial_code": "+354",
    "flag": "ğŸ‡®ğŸ‡¸"
  },
  {
    "code": "MH",
    "name": "Islas Marshall",
    "dial_code": "+692",
    "flag": "ğŸ‡²ğŸ‡­"
  },
  {
    "code": "SB",
    "name": "Islas SalomÃ³n",
    "dial_code": "+677",
    "flag": "ğŸ‡¸ğŸ‡§"
  },
  {
    "code": "IL",
    "name": "Israel",
    "dial_code": "+972",
    "flag": "ğŸ‡®ğŸ‡±"
  },
  {
    "code": "IT",
    "name": "Italia",
    "dial_code": "+39",
    "flag": "ğŸ‡®ğŸ‡¹"
  },
  {
    "code": "JM",
    "name": "Jamaica",
    "dial_code": "+1",
    "flag": "ğŸ‡¯ğŸ‡²"
  },
  {
    "code": "JP",
    "name": "JapÃ³n",
    "dial_code": "+81",
    "flag": "ğŸ‡¯ğŸ‡µ"
  },
  {
    "code": "JO",
    "name": "Jordania",
    "dial_code": "+962",
    "flag": "ğŸ‡¯ğŸ‡´"
  },
  {
    "code": "KZ",
    "name": "KazajistÃ¡n",
    "dial_code": "+7",
    "flag": "ğŸ‡°ğŸ‡¿"
  },
  {
    "code": "KE",
    "name": "Kenia",
    "dial_code": "+254",
    "flag": "ğŸ‡°ğŸ‡ª"
  },
  {
    "code": "KG",
    "name": "KirguistÃ¡n",
    "dial_code": "+996",
    "flag": "ğŸ‡°ğŸ‡¬"
  },
  {
    "code": "KI",
    "name": "Kiribati",
    "dial_code": "+686",
    "flag": "ğŸ‡°ğŸ‡®"
  },
  {
    "code": "KW",
    "name": "Kuwait",
    "dial_code": "+965",
    "flag": "ğŸ‡°ğŸ‡¼"
  },
  {
    "code": "LA",
    "name": "Laos",
    "dial_code": "+856",
    "flag": "ğŸ‡±ğŸ‡¦"
  },
  {
    "code": "LS",
    "name": "Lesoto",
    "dial_code": "+266",
    "flag": "ğŸ‡±ğŸ‡¸"
  },
  {
    "code": "LV",
    "name": "Letonia",
    "dial_code": "+371",
    "flag": "ğŸ‡±ğŸ‡»"
  },
  {
    "code": "LB",
    "name": "LÃ­bano",
    "dial_code": "+961",
    "flag": "ğŸ‡±ğŸ‡§"
  },
  {
    "code": "LR",
    "name": "Liberia",
    "dial_code": "+231",
    "flag": "ğŸ‡±ğŸ‡·"
  },
  {
    "code": "LY",
    "name": "Libia",
    "dial_code": "+218",
    "flag": "ğŸ‡±ğŸ‡¾"
  },
  {
    "code": "LI",
    "name": "Liechtenstein",
    "dial_code": "+423",
    "flag": "ğŸ‡±ğŸ‡®"
  },
  {
    "code": "LT",
    "name": "Lituania",
    "dial_code": "+370",
    "flag": "ğŸ‡±ğŸ‡¹"
  },
  {
    "code": "LU",
    "name": "Luxemburgo",
    "dial_code": "+352",
    "flag": "ğŸ‡±ğŸ‡º"
  },
  {
    "code": "MK",
    "name": "Macedonia del Norte",
    "dial_code": "+389",
    "flag": "ğŸ‡²ğŸ‡°"
  },
  {
    "code": "MG",
    "name": "Madagascar",
    "dial_code": "+261",
    "flag": "ğŸ‡²ğŸ‡¬"
  },
  {
    "code": "MY",
    "name": "Malasia",
    "dial_code": "+60",
    "flag": "ğŸ‡²ğŸ‡¾"
  },
  {
    "code": "MW",
    "name": "Malaui",
    "dial_code": "+265",
    "flag": "ğŸ‡²ğŸ‡¼"
  },
  {
    "code": "MV",
    "name": "Maldivas",
    "dial_code": "+960",
    "flag": "ğŸ‡²ğŸ‡»"
  },
  {
    "code": "ML",
    "name": "MalÃ­",
    "dial_code": "+223",
    "flag": "ğŸ‡²ğŸ‡±"
  },
  {
    "code": "MT",
    "name": "Malta",
    "dial_code": "+356",
    "flag": "ğŸ‡²ğŸ‡¹"
  },
  {
    "code": "MA",
    "name": "Marruecos",
    "dial_code": "+212",
    "flag": "ğŸ‡²ğŸ‡¦"
  },
  {
    "code": "MU",
    "name": "Mauricio",
    "dial_code": "+230",
    "flag": "ğŸ‡²ğŸ‡º"
  },
  {
    "code": "MR",
    "name": "Mauritania",
    "dial_code": "+222",
    "flag": "ğŸ‡²ğŸ‡·"
  },
  {
    "code": "MX",
    "name": "MÃ©xico",
    "dial_code": "+52",
    "flag": "ğŸ‡²ğŸ‡½"
  },
  {
    "code": "FM",
    "name": "Micronesia",
    "dial_code": "+691",
    "flag": "ğŸ‡«ğŸ‡²"
  },
  {
    "code": "MD",
    "name": "Moldavia",
    "dial_code": "+373",
    "flag": "ğŸ‡²ğŸ‡©"
  },
  {
    "code": "MC",
    "name": "MÃ³naco",
    "dial_code": "+377",
    "flag": "ğŸ‡²ğŸ‡¨"
  },
  {
    "code": "MN",
    "name": "Mongolia",
    "dial_code": "+976",
    "flag": "ğŸ‡²ğŸ‡³"
  },
  {
    "code": "ME",
    "name": "Montenegro",
    "dial_code": "+382",
    "flag": "ğŸ‡²ğŸ‡ª"
  },
  {
    "code": "MZ",
    "name": "Mozambique",
    "dial_code": "+258",
    "flag": "ğŸ‡²ğŸ‡¿"
  },
  {
    "code": "NA",
    "name": "Namibia",
    "dial_code": "+264",
    "flag": "ğŸ‡³ğŸ‡¦"
  },
  {
    "code": "NR",
    "name": "Nauru",
    "dial_code": "+674",
    "flag": "ğŸ‡³ğŸ‡·"
  },
  {
    "code": "NP",
    "name": "Nepal",
    "dial_code": "+977",
    "flag": "ğŸ‡³ğŸ‡µ"
  },
  {
    "code": "NI",
    "name": "Nicaragua",
    "dial_code": "+505",
    "flag": "ğŸ‡³ğŸ‡®"
  },
  {
    "code": "NE",
    "name": "NÃ­ger",
    "dial_code": "+227",
    "flag": "ğŸ‡³ğŸ‡ª"
  },
  {
    "code": "NG",
    "name": "Nigeria",
    "dial_code": "+234",
    "flag": "ğŸ‡³ğŸ‡¬"
  },
  {
    "code": "NO",
    "name": "Noruega",
    "dial_code": "+47",
    "flag": "ğŸ‡³ğŸ‡´"
  },
  {
    "code": "NZ",
    "name": "Nueva Zelanda",
    "dial_code": "+64",
    "flag": "ğŸ‡³ğŸ‡¿"
  },
  {
    "code": "OM",
    "name": "OmÃ¡n",
    "dial_code": "+968",
    "flag": "ğŸ‡´ğŸ‡²"
  },
  {
    "code": "NL",
    "name": "PaÃ­ses Bajos",
    "dial_code": "+31",
    "flag": "ğŸ‡³ğŸ‡±"
  },
  {
    "code": "PK",
    "name": "PakistÃ¡n",
    "dial_code": "+92",
    "flag": "ğŸ‡µğŸ‡°"
  },
  {
    "code": "PW",
    "name": "Palaos",
    "dial_code": "+680",
    "flag": "ğŸ‡µğŸ‡¼"
  },
  {
    "code": "PA",
    "name": "PanamÃ¡",
    "dial_code": "+507",
    "flag": "ğŸ‡µğŸ‡¦"
  },
  {
    "code": "PG",
    "name": "PapÃºa Nueva Guinea",
    "dial_code": "+675",
    "flag": "ğŸ‡µğŸ‡¬"
  },
  {
    "code": "PY",
    "name": "Paraguay",
    "dial_code": "+595",
    "flag": "ğŸ‡µğŸ‡¾"
  },
  {
    "code": "PE",
    "name": "PerÃº",
    "dial_code": "+51",
    "flag": "ğŸ‡µğŸ‡ª"
  },
  {
    "code": "PL",
    "name": "Polonia",
    "dial_code": "+48",
    "flag": "ğŸ‡µğŸ‡±"
  },
  {
    "code": "PT",
    "name": "Portugal",
    "dial_code": "+351",
    "flag": "ğŸ‡µğŸ‡¹"
  },
  {
    "code": "GB",
    "name": "Reino Unido",
    "dial_code": "+44",
    "flag": "ğŸ‡¬ğŸ‡§"
  },
  {
    "code": "CF",
    "name": "RepÃºblica Centroafricana",
    "dial_code": "+236",
    "flag": "ğŸ‡¨ğŸ‡«"
  },
  {
    "code": "CD",
    "name": "RepÃºblica DemocrÃ¡tica del Congo",
    "dial_code": "+243",
    "flag": "ğŸ‡¨ğŸ‡©"
  },
  {
    "code": "DO",
    "name": "RepÃºblica Dominicana",
    "dial_code": "+1",
    "flag": "ğŸ‡©ğŸ‡´"
  },
  {
    "code": "RO",
    "name": "Rumania",
    "dial_code": "+40",
    "flag": "ğŸ‡·ğŸ‡´"
  },
  {
    "code": "RW",
    "name": "Ruanda",
    "dial_code": "+250",
    "flag": "ğŸ‡·ğŸ‡¼"
  },
  {
    "code": "RU",
    "name": "Rusia",
    "dial_code": "+7",
    "flag": "ğŸ‡·ğŸ‡º"
  },
  {
    "code": "WS",
    "name": "Samoa",
    "dial_code": "+685",
    "flag": "ğŸ‡¼ğŸ‡¸"
  },
  {
    "code": "KN",
    "name": "San CristÃ³bal y Nieves",
    "dial_code": "+1",
    "flag": "ğŸ‡°ğŸ‡³"
  },
  {
    "code": "SM",
    "name": "San Marino",
    "dial_code": "+378",
    "flag": "ğŸ‡¸ğŸ‡²"
  },
  {
    "code": "VC",
    "name": "San Vicente y las Granadinas",
    "dial_code": "+1",
    "flag": "ğŸ‡»ğŸ‡¨"
  },
  {
    "code": "LC",
    "name": "Santa LucÃ­a",
    "dial_code": "+1",
    "flag": "ğŸ‡±ğŸ‡¨"
  },
  {
    "code": "ST",
    "name": "Santo TomÃ© y PrÃ­ncipe",
    "dial_code": "+239",
    "flag": "ğŸ‡¸ğŸ‡¹"
  },
  {
    "code": "SN",
    "name": "Senegal",
    "dial_code": "+221",
    "flag": "ğŸ‡¸ğŸ‡³"
  },
  {
    "code": "RS",
    "name": "Serbia",
    "dial_code": "+381",
    "flag": "ğŸ‡·ğŸ‡¸"
  },
  {
    "code": "SC",
    "name": "Seychelles",
    "dial_code": "+248",
    "flag": "ğŸ‡¸ğŸ‡¨"
  },
  {
    "code": "SL",
    "name": "Sierra Leona",
    "dial_code": "+232",
    "flag": "ğŸ‡¸ğŸ‡±"
  },
  {
    "code": "SG",
    "name": "Singapur",
    "dial_code": "+65",
    "flag": "ğŸ‡¸ğŸ‡¬"
  },
  {
    "code": "SY",
    "name": "Siria",
    "dial_code": "+963",
    "flag": "ğŸ‡¸ğŸ‡¾"
  },
  {
    "code": "SO",
    "name": "Somalia",
    "dial_code": "+252",
    "flag": "ğŸ‡¸ğŸ‡´"
  },
  {
    "code": "LK",
    "name": "Sri Lanka",
    "dial_code": "+94",
    "flag": "ğŸ‡±ğŸ‡°"
  },
  {
    "code": "ZA",
    "name": "SudÃ¡frica",
    "dial_code": "+27",
    "flag": "ğŸ‡¿ğŸ‡¦"
  },
  {
    "code": "SD",
    "name": "SudÃ¡n",
    "dial_code": "+249",
    "flag": "ğŸ‡¸ğŸ‡©"
  },
  {
    "code": "SS",
    "name": "SudÃ¡n del Sur",
    "dial_code": "+211",
    "flag": "ğŸ‡¸ğŸ‡¸"
  },
  {
    "code": "SE",
    "name": "Suecia",
    "dial_code": "+46",
    "flag": "ğŸ‡¸ğŸ‡ª"
  },
  {
    "code": "CH",
    "name": "Suiza",
    "dial_code": "+41",
    "flag": "ğŸ‡¨ğŸ‡­"
  },
  {
    "code": "SR",
    "name": "Surinam",
    "dial_code": "+597",
    "flag": "ğŸ‡¸ğŸ‡·"
  },
  {
    "code": "TH",
    "name": "Tailandia",
    "dial_code": "+66",
    "flag": "ğŸ‡¹ğŸ‡­"
  },
  {
    "code": "TZ",
    "name": "Tanzania",
    "dial_code": "+255",
    "flag": "ğŸ‡¹ğŸ‡¿"
  },
  {
    "code": "TJ",
    "name": "TayikistÃ¡n",
    "dial_code": "+992",
    "flag": "ğŸ‡¹ğŸ‡¯"
  },
  {
    "code": "TL",
    "name": "Timor Oriental",
    "dial_code": "+670",
    "flag": "ğŸ‡¹ğŸ‡±"
  },
  {
    "code": "TG",
    "name": "Togo",
    "dial_code": "+228",
    "flag": "ğŸ‡¹ğŸ‡¬"
  },
  {
    "code": "TO",
    "name": "Tonga",
    "dial_code": "+676",
    "flag": "ğŸ‡¹ğŸ‡´"
  },
  {
    "code": "TT",
    "name": "Trinidad y Tobago",
    "dial_code": "+1",
    "flag": "ğŸ‡¹ğŸ‡¹"
  },
  {
    "code": "TN",
    "name": "TÃºnez",
    "dial_code": "+216",
    "flag": "ğŸ‡¹ğŸ‡³"
  },
  {
    "code": "TM",
    "name": "TurkmenistÃ¡n",
    "dial_code": "+993",
    "flag": "ğŸ‡¹ğŸ‡²"
  },
  {
    "code": "TR",
    "name": "TurquÃ­a",
    "dial_code": "+90",
    "flag": "ğŸ‡¹ğŸ‡·"
  },
  {
    "code": "TV",
    "name": "Tuvalu",
    "dial_code": "+688",
    "flag": "ğŸ‡¹ğŸ‡»"
  },
  {
    "code": "UA",
    "name": "Ucrania",
    "dial_code": "+380",
    "flag": "ğŸ‡ºğŸ‡¦"
  },
  {
    "code": "UG",
    "name": "Uganda",
    "dial_code": "+256",
    "flag": "ğŸ‡ºğŸ‡¬"
  },
  {
    "code": "UY",
    "name": "Uruguay",
    "dial_code": "+598",
    "flag": "ğŸ‡ºğŸ‡¾"
  },
  {
    "code": "UZ",
    "name": "UzbekistÃ¡n",
    "dial_code": "+998",
    "flag": "ğŸ‡ºğŸ‡¿"
  },
  {
    "code": "VU",
    "name": "Vanuatu",
    "dial_code": "+678",
    "flag": "ğŸ‡»ğŸ‡º"
  },
  {
    "code": "VA",
    "name": "Vaticano",
    "dial_code": "+39",
    "flag": "ğŸ‡»ğŸ‡¦"
  },
  {
    "code": "VE",
    "name": "Venezuela",
    "dial_code": "+58",
    "flag": "ğŸ‡»ğŸ‡ª"
  },
  {
    "code": "VN",
    "name": "Vietnam",
    "dial_code": "+84",
    "flag": "ğŸ‡»ğŸ‡³"
  },
  {
    "code": "YE",
    "name": "Yemen",
    "dial_code": "+967",
    "flag": "ğŸ‡¾ğŸ‡ª"
  },
  {
    "code": "DJ",
    "name": "Yibuti",
    "dial_code": "+253",
    "flag": "ğŸ‡©ğŸ‡¯"
  },
  {
    "code": "ZM",
    "name": "Zambia",
    "dial_code": "+260",
    "flag": "ğŸ‡¿ğŸ‡²"
  },
  {
    "code": "ZW",
    "name": "Zimbabue",
    "dial_code": "+263",
    "flag": "ğŸ‡¿ğŸ‡¼"
  }
]
